start=new Date('2022-03-16T00:00:00.000Z').valueOf();
sats=[{"DECAY_DATE":null,"SEMIMAJOR_AXIS":"6925.251","MEAN_ANOMALY":"295.5072","RA_OF_ASC_NODE":"35.7034","ARG_OF_PERICENTER":"64.6100","SITE":"AFETR","PERIOD":"95.590","TLE_LINE2":"2 48397  53.0549  35.7034 0001770  64.6100 295.5072 15.06431897 49145","ELEMENT_SET_NO":"999","FILE":"3360930","EPHEMERIS_TYPE":"0","OBJECT_NAME":"STARLINK-2590","TLE_LINE1":"1 48397U 21038AW  22074.17033956  .00006639  00000-0  46378-3 0  9999","OBJECT_ID":"2021-038AW","CENTER_NAME":"EARTH","APOAPSIS":"548.342","MEAN_MOTION_DOT":"0.00006639","TIME_SYSTEM":"UTC","OBJECT_TYPE":"PAYLOAD","INCLINATION":"53.0549","CLASSIFICATION_TYPE":"U","LAUNCH_DATE":"2021-05-04","BSTAR":"0.00046378000000","GP_ID":"198847640","MEAN_MOTION":"15.06431897","REF_FRAME":"TEME","RCS_SIZE":"LARGE","ECCENTRICITY":"0.00017700","NORAD_CAT_ID":"48397","REV_AT_EPOCH":"4914","MEAN_MOTION_DDOT":"0.0000000000000","COUNTRY_CODE":"US","PERIAPSIS":"545.890","MEAN_ELEMENT_THEORY":"SGP4","EPOCH":"2022-03-15T04:05:17.337984"},{"MEAN_MOTION_DOT":"0.00008027","APOAPSIS":"548.441","CENTER_NAME":"EARTH","OBJECT_ID":"2021-038AX","TLE_LINE1":"1 48398U 21038AX  22074.29935723  .00008027  00000-0  55701-3 0  9999","FILE":"3360930","OBJECT_NAME":"STARLINK-2588","EPHEMERIS_TYPE":"0","ELEMENT_SET_NO":"999","PERIOD":"95.591","TLE_LINE2":"2 48398  53.0561  35.1248 0001825  55.6846 304.4316 15.06411931 49169","SITE":"AFETR","ARG_OF_PERICENTER":"55.6846","RA_OF_ASC_NODE":"35.1248","MEAN_ANOMALY":"304.4316","SEMIMAJOR_AXIS":"6925.312","DECAY_DATE":null,"EPOCH":"2022-03-15T07:11:04.464672","MEAN_ELEMENT_THEORY":"SGP4","PERIAPSIS":"545.913","COUNTRY_CODE":"US","MEAN_MOTION_DDOT":"0.0000000000000","REV_AT_EPOCH":"4916","NORAD_CAT_ID":"48398","RCS_SIZE":"LARGE","ECCENTRICITY":"0.00018250","GP_ID":"198846391","MEAN_MOTION":"15.06411931","REF_FRAME":"TEME","BSTAR":"0.00055701000000","LAUNCH_DATE":"2021-05-04","CLASSIFICATION_TYPE":"U","INCLINATION":"53.0561","OBJECT_TYPE":"PAYLOAD","TIME_SYSTEM":"UTC"},{"COUNTRY_CODE":"US","MEAN_MOTION_DDOT":"0.0000000000000","EPOCH":"2022-03-15T16:38:59.562816","MEAN_ELEMENT_THEORY":"SGP4","PERIAPSIS":"545.959","ECCENTRICITY":"0.00017860","RCS_SIZE":"LARGE","GP_ID":"198846641","REF_FRAME":"TEME","MEAN_MOTION":"15.06405930","BSTAR":"0.00012358000000","LAUNCH_DATE":"2021-05-04","REV_AT_EPOCH":"4921","NORAD_CAT_ID":"48399","CLASSIFICATION_TYPE":"U","INCLINATION":"53.0560","OBJECT_TYPE":"PAYLOAD","TIME_SYSTEM":"UTC","CENTER_NAME":"EARTH","OBJECT_ID":"2021-038AY","MEAN_MOTION_DOT":"0.00001560","APOAPSIS":"548.432","OBJECT_NAME":"STARLINK-2587","FILE":"3360930","EPHEMERIS_TYPE":"0","ELEMENT_SET_NO":"999","TLE_LINE2":"2 48399  53.0560  33.3562 0001786  54.5835 305.5320 15.06405930 49215","PERIOD":"95.592","SITE":"AFETR","TLE_LINE1":"1 48399U 21038AY  22074.69374494  .00001560  00000-0  12358-3 0  9992","RA_OF_ASC_NODE":"33.3562","MEAN_ANOMALY":"305.5320","ARG_OF_PERICENTER":"54.5835","DECAY_DATE":null,"SEMIMAJOR_AXIS":"6925.330"},{"OBJECT_NAME":"STARLINK-2576","FILE":"3360930","EPHEMERIS_TYPE":"0","ELEMENT_SET_NO":"999","TLE_LINE2":"2 48400  53.0543  32.7824 0001833  56.7636 303.3528 15.06414736 48027","PERIOD":"95.591","SITE":"AFETR","TLE_LINE1":"1 48400U 21038AZ  22074.82276863  .00009382  00000-0  64763-3 0  9998","CENTER_NAME":"EARTH","OBJECT_ID":"2021-038AZ","MEAN_MOTION_DOT":"0.00009382","APOAPSIS":"548.438","DECAY_DATE":null,"SEMIMAJOR_AXIS":"6925.303","RA_OF_ASC_NODE":"32.7824","MEAN_ANOMALY":"303.3528","ARG_OF_PERICENTER":"56.7636","RCS_SIZE":"LARGE","ECCENTRICITY":"0.00018330","GP_ID":"198847391","MEAN_MOTION":"15.06414736","REF_FRAME":"TEME","BSTAR":"0.00064763000000","LAUNCH_DATE":"2021-05-04","REV_AT_EPOCH":"4802","NORAD_CAT_ID":"48400","COUNTRY_CODE":"US","MEAN_MOTION_DDOT":"0.0000000000000","EPOCH":"2022-03-15T19:44:47.209632","MEAN_ELEMENT_THEORY":"SGP4","PERIAPSIS":"545.899","INCLINATION":"53.0543","OBJECT_TYPE":"PAYLOAD","TIME_SYSTEM":"UTC","CLASSIFICATION_TYPE":"U"},{"TLE_LINE1":"1 48401U 21038BA  22074.85867969  .00003450  00000-0  25035-3 0  9994","FILE":"3360663","OBJECT_NAME":"STARLINK-2571","EPHEMERIS_TYPE":"0","ELEMENT_SET_NO":"999","PERIOD":"95.592","TLE_LINE2":"2 48401  53.0562  32.6146 0001870  53.9639 306.1523 15.06403063 48610","SITE":"AFETR","MEAN_MOTION_DOT":"0.00003450","APOAPSIS":"548.499","CENTER_NAME":"EARTH","OBJECT_ID":"2021-038BA","SEMIMAJOR_AXIS":"6925.339","DECAY_DATE":null,"ARG_OF_PERICENTER":"53.9639","RA_OF_ASC_NODE":"32.6146","MEAN_ANOMALY":"306.1523","REV_AT_EPOCH":"4861","NORAD_CAT_ID":"48401","RCS_SIZE":"LARGE","ECCENTRICITY":"0.00018700","GP_ID":"198818579","MEAN_MOTION":"15.06403063","REF_FRAME":"TEME","BSTAR":"0.00025035000000","LAUNCH_DATE":"2021-05-04","EPOCH":"2022-03-15T20:36:29.925216","PERIAPSIS":"545.909","MEAN_ELEMENT_THEORY":"SGP4","COUNTRY_CODE":"US","MEAN_MOTION_DDOT":"0.0000000000000","INCLINATION":"53.0562","OBJECT_TYPE":"PAYLOAD","TIME_SYSTEM":"UTC","CLASSIFICATION_TYPE":"U"},{"CLASSIFICATION_TYPE":"U","INCLINATION":"53.0550","TIME_SYSTEM":"UTC","OBJECT_TYPE":"PAYLOAD","PERIAPSIS":"546.018","MEAN_ELEMENT_THEORY":"SGP4","EPOCH":"2022-03-15T16:28:23.383200","COUNTRY_CODE":"US","MEAN_MOTION_DDOT":"0.0000000000000","REV_AT_EPOCH":"4800","NORAD_CAT_ID":"48402","GP_ID":"198846891","REF_FRAME":"TEME","MEAN_MOTION":"15.06406073","ECCENTRICITY":"0.00017000","RCS_SIZE":"LARGE","LAUNCH_DATE":"2021-05-04","BSTAR":"0.00020672000000","ARG_OF_PERICENTER":"54.6483","RA_OF_ASC_NODE":"33.3879","MEAN_ANOMALY":"305.4665","SEMIMAJOR_AXIS":"6925.330","DECAY_DATE":null,"MEAN_MOTION_DOT":"0.00002799","APOAPSIS":"548.372","CENTER_NAME":"EARTH","OBJECT_ID":"2021-038BB","TLE_LINE1":"1 48402U 21038BB  22074.68638175  .00002799  00000-0  20672-3 0  9998","ELEMENT_SET_NO":"999","FILE":"3360930","EPHEMERIS_TYPE":"0","OBJECT_NAME":"STARLINK-2560","SITE":"AFETR","TLE_LINE2":"2 48402  53.0550  33.3879 0001700  54.6483 305.4665 15.06406073 48002","PERIOD":"95.592"},{"INCLINATION":"53.0557","OBJECT_TYPE":"PAYLOAD","TIME_SYSTEM":"UTC","CLASSIFICATION_TYPE":"U","ECCENTRICITY":"0.00017030","RCS_SIZE":"LARGE","REF_FRAME":"TEME","GP_ID":"198819664","MEAN_MOTION":"15.06406702","BSTAR":"0.00026084000000","LAUNCH_DATE":"2021-05-04","REV_AT_EPOCH":"4858","NORAD_CAT_ID":"48403","COUNTRY_CODE":"US","MEAN_MOTION_DDOT":"0.0000000000000","EPOCH":"2022-03-15T14:47:32.419680","MEAN_ELEMENT_THEORY":"SGP4","PERIAPSIS":"546.014","DECAY_DATE":null,"SEMIMAJOR_AXIS":"6925.328","RA_OF_ASC_NODE":"33.6905","MEAN_ANOMALY":"303.2834","ARG_OF_PERICENTER":"56.8318","EPHEMERIS_TYPE":"0","FILE":"3360669","OBJECT_NAME":"STARLINK-2561","ELEMENT_SET_NO":"999","PERIOD":"95.592","TLE_LINE2":"2 48403  53.0557  33.6905 0001703  56.8318 303.2834 15.06406702 48583","SITE":"AFETR","TLE_LINE1":"1 48403U 21038BC  22074.61634745  .00003606  00000-0  26084-3 0  9992","CENTER_NAME":"EARTH","OBJECT_ID":"2021-038BC","MEAN_MOTION_DOT":"0.00003606","APOAPSIS":"548.372"},{"CLASSIFICATION_TYPE":"U","TIME_SYSTEM":"UTC","OBJECT_TYPE":"PAYLOAD","INCLINATION":"53.0561","MEAN_MOTION_DDOT":"0.0000000000000","COUNTRY_CODE":"US","PERIAPSIS":"546.074","MEAN_ELEMENT_THEORY":"SGP4","EPOCH":"2022-03-15T14:42:14.116032","LAUNCH_DATE":"2021-05-04","BSTAR":"0.00021660000000","GP_ID":"198819670","MEAN_MOTION":"15.06407931","REF_FRAME":"TEME","RCS_SIZE":"LARGE","ECCENTRICITY":"0.00016110","NORAD_CAT_ID":"48404","REV_AT_EPOCH":"4858","MEAN_ANOMALY":"301.0445","RA_OF_ASC_NODE":"33.7187","ARG_OF_PERICENTER":"59.0703","DECAY_DATE":null,"SEMIMAJOR_AXIS":"6925.324","OBJECT_ID":"2021-038BD","CENTER_NAME":"EARTH","APOAPSIS":"548.305","MEAN_MOTION_DOT":"0.00002947","SITE":"AFETR","PERIOD":"95.592","TLE_LINE2":"2 48404  53.0561  33.7187 0001611  59.0703 301.0445 15.06407931 48582","ELEMENT_SET_NO":"999","EPHEMERIS_TYPE":"0","FILE":"3360669","OBJECT_NAME":"STARLINK-2593","TLE_LINE1":"1 48404U 21038BD  22074.61266338  .00002947  00000-0  21660-3 0  9994"},{"SITE":"AFETR","TLE_LINE2":"2 48405  53.0552  32.8459 0001503  61.0792 299.0348 15.06394420 48616","PERIOD":"95.592","ELEMENT_SET_NO":"999","FILE":"3360669","EPHEMERIS_TYPE":"0","OBJECT_NAME":"STARLINK-2570","TLE_LINE1":"1 48405U 21038BE  22074.80802052 -.00004456  00000-0 -28048-3 0  9991","OBJECT_ID":"2021-038BE","CENTER_NAME":"EARTH","APOAPSIS":"548.272","MEAN_MOTION_DOT":"-0.00004456","DECAY_DATE":null,"SEMIMAJOR_AXIS":"6925.366","MEAN_ANOMALY":"299.0348","RA_OF_ASC_NODE":"32.8459","ARG_OF_PERICENTER":"61.0792","LAUNCH_DATE":"2021-05-04","BSTAR":"-0.00028048000000","GP_ID":"198819667","MEAN_MOTION":"15.06394420","REF_FRAME":"TEME","RCS_SIZE":"LARGE","ECCENTRICITY":"0.00015030","NORAD_CAT_ID":"48405","REV_AT_EPOCH":"4861","MEAN_MOTION_DDOT":"0.0000000000000","COUNTRY_CODE":"US","MEAN_ELEMENT_THEORY":"SGP4","PERIAPSIS":"546.190","EPOCH":"2022-03-15T19:23:32.972928","TIME_SYSTEM":"UTC","OBJECT_TYPE":"PAYLOAD","INCLINATION":"53.0552","CLASSIFICATION_TYPE":"U"},{"INCLINATION":"53.0556","OBJECT_TYPE":"PAYLOAD","TIME_SYSTEM":"UTC","CLASSIFICATION_TYPE":"U","REV_AT_EPOCH":"4858","NORAD_CAT_ID":"48406","RCS_SIZE":"LARGE","ECCENTRICITY":"0.00030920","GP_ID":"198819167","REF_FRAME":"TEME","MEAN_MOTION":"15.06438520","BSTAR":"0.00136460000000","LAUNCH_DATE":"2021-05-04","EPOCH":"2022-03-15T14:31:37.650432","MEAN_ELEMENT_THEORY":"SGP4","PERIAPSIS":"544.954","COUNTRY_CODE":"US","MEAN_MOTION_DDOT":"0.0000000000000","SEMIMAJOR_AXIS":"6925.231","DECAY_DATE":null,"ARG_OF_PERICENTER":"59.3920","RA_OF_ASC_NODE":"33.7465","MEAN_ANOMALY":"300.7374","TLE_LINE1":"1 48406U 21038BF  22074.60529688  .00020125  00000-0  13646-2 0  9997","FILE":"3360669","EPHEMERIS_TYPE":"0","OBJECT_NAME":"STARLINK-2568","ELEMENT_SET_NO":"999","PERIOD":"95.590","TLE_LINE2":"2 48406  53.0556  33.7465 0003092  59.3920 300.7374 15.06438520 48581","SITE":"AFETR","MEAN_MOTION_DOT":"0.00020125","APOAPSIS":"549.237","CENTER_NAME":"EARTH","OBJECT_ID":"2021-038BF"}];
